ORBCOMM FM37            
1 33064U 08031E   25299.14148538  .00002719  00000+0  38050-3 0  9996
2 33064  48.4388  80.8539 0005764 222.1537 308.0584 14.80311298933448
ORBCOMM FM40            
1 33065U 08031F   25299.11804998  .00003790  00000+0  49049-3 0  9993
2 33065  48.4413  62.7485 0006994 236.6172 292.9638 14.82732238933587
VESSELSAT 1             
1 37840U 11058C   25298.89514052  .00000408  00000+0  77733-4 0  9999
2 37840  19.9632  22.9525 0013560 183.8319 176.1982 14.11383221724796
ORBCOMM FM109           
1 40086U 14040A   25298.84248689  .00000795  00000+0  20617-3 0  9991
2 40086  47.0017 119.1356 0002061 228.4718 131.5991 14.58410542600139
ORBCOMM FM107           
1 40087U 14040B   25298.93281833  .00000940  00000+0  23684-3 0  9999
2 40087  47.0035 119.6188 0001152 183.8509 176.2368 14.58487218600228
ORBCOMM FM106           
1 40088U 14040C   25299.10522417  .00001707  00000+0  31357-3 0  9994
2 40088  47.0596 290.3758 0017499 313.6930  46.2510 14.69828196602732
ORBCOMM FM111           
1 40089U 14040D   25298.99830618  .00004141  00000+0  47517-3 0  9996
2 40089  46.9988 123.1848 0028637 100.4379 259.9747 14.87227621609697
ORBCOMM FM104           
1 40090U 14040E   25298.99698744  .00000845  00000+0  22406-3 0  9997
2 40090  47.0037 154.5075 0015869  82.4285 277.8402 14.56878940599691
